[{"OBJECT_NAME":"STARLINK-1302","OBJECT_ID":"2020-019R","EPOCH":"2025-08-27T05:56:39.703200","MEAN_MOTION":15.0640656,"ECCENTRICITY":0.0001086,"INCLINATION":53.0567,"RA_OF_ASC_NODE":319.5052,"ARG_OF_PERICENTER":92.8473,"MEAN_ANOMALY":267.264,"EPHEMERIS_TYPE":0,"CLASSIFICATION_TYPE":"U","NORAD_CAT_ID":45375,"ELEMENT_SET_NO":999,"REV_AT_EPOCH":30042,"BSTAR":7.5810829e-5,"MEAN_MOTION_DOT":8.48e-6,"MEAN_MOTION_DDOT":0},{"OBJECT_NAME":"STARLINK-1304","OBJECT_ID":"2020-019S","EPOCH":"2025-08-26T22:25:30.949536","MEAN_MOTION":15.06406604,"ECCENTRICITY":0.00012924,"INCLINATION":53.0561,"RA_OF_ASC_NODE":320.9158,"ARG_OF_PERICENTER":87.2946,"MEAN_ANOMALY":272.8191,"EPHEMERIS_TYPE":0,"CLASSIFICATION_TYPE":"U","NORAD_CAT_ID":45376,"ELEMENT_SET_NO":999,"REV_AT_EPOCH":30037,"BSTAR":4.5505798e-5,"MEAN_MOTION_DOT":3.97e-6,"MEAN_MOTION_DDOT":0},{"OBJECT_NAME":"STARLINK-1305","OBJECT_ID":"2020-019T","EPOCH":"2025-08-27T05:24:50.111136","MEAN_MOTION":15.06403835,"ECCENTRICITY":0.0001301,"INCLINATION":53.0552,"RA_OF_ASC_NODE":319.6011,"ARG_OF_PERICENTER":92.4896,"MEAN_ANOMALY":267.6242,"EPHEMERIS_TYPE":0,"CLASSIFICATION_TYPE":"U","NORAD_CAT_ID":45377,"ELEMENT_SET_NO":999,"REV_AT_EPOCH":30042,"BSTAR":0.00015784361,"MEAN_MOTION_DOT":2.071e-5,"MEAN_MOTION_DDOT":0},{"OBJECT_NAME":"STARLINK-1319","OBJECT_ID":"2020-019V","EPOCH":"2025-08-26T22:52:03.469152","MEAN_MOTION":15.06412561,"ECCENTRICITY":0.00012904,"INCLINATION":53.0558,"RA_OF_ASC_NODE":320.8305,"ARG_OF_PERICENTER":88.6262,"MEAN_ANOMALY":271.4875,"EPHEMERIS_TYPE":0,"CLASSIFICATION_TYPE":"U","NORAD_CAT_ID":45379,"ELEMENT_SET_NO":999,"REV_AT_EPOCH":30038,"BSTAR":0.00047628569,"MEAN_MOTION_DOT":6.822e-5,"MEAN_MOTION_DDOT":0},{"OBJECT_NAME":"STARLINK-1258","OBJECT_ID":"2020-019X","EPOCH":"2025-08-27T06:00:02.000160","MEAN_MOTION":15.82672916,"ECCENTRICITY":0.00106431,"INCLINATION":53.0469,"RA_OF_ASC_NODE":259.6211,"ARG_OF_PERICENTER":341.4906,"MEAN_ANOMALY":113.7164,"EPHEMERIS_TYPE":0,"CLASSIFICATION_TYPE":"U","NORAD_CAT_ID":45381,"ELEMENT_SET_NO":999,"REV_AT_EPOCH":604,"BSTAR":0.0004178116,"MEAN_MOTION_DOT":0.00090234,"MEAN_MOTION_DDOT":0},{"OBJECT_NAME":"STARLINK-1266","OBJECT_ID":"2020-019Z","EPOCH":"2025-08-27T05:16:51.586464","MEAN_MOTION":15.06408025,"ECCENTRICITY":0.00012986,"INCLINATION":53.0562,"RA_OF_ASC_NODE":299.6304,"ARG_OF_PERICENTER":91.747,"MEAN_ANOMALY":268.3668,"EPHEMERIS_TYPE":0,"CLASSIFICATION_TYPE":"U","NORAD_CAT_ID":45383,"ELEMENT_SET_NO":999,"REV_AT_EPOCH":30069,"BSTAR":7.3826958e-5,"MEAN_MOTION_DOT":8.19e-6,"MEAN_MOTION_DDOT":0},{"OBJECT_NAME":"STARLINK-1267","OBJECT_ID":"2020-019AA","EPOCH":"2025-08-27T04:55:44.432832","MEAN_MOTION":15.06407665,"ECCENTRICITY":0.00010704,"INCLINATION":53.0558,"RA_OF_ASC_NODE":300.3518,"ARG_OF_PERICENTER":92.4712,"MEAN_ANOMALY":267.64,"EPHEMERIS_TYPE":0,"CLASSIFICATION_TYPE":"U","NORAD_CAT_ID":45384,"ELEMENT_SET_NO":999,"REV_AT_EPOCH":30068,"BSTAR":9.4959124e-5,"MEAN_MOTION_DOT":1.134e-5,"MEAN_MOTION_DDOT":0},{"OBJECT_NAME":"STARLINK-1272","OBJECT_ID":"2020-019AC","EPOCH":"2025-08-26T21:08:33.012960","MEAN_MOTION":15.06402669,"ECCENTRICITY":0.00011739,"INCLINATION":53.0559,"RA_OF_ASC_NODE":301.1531,"ARG_OF_PERICENTER":91.8406,"MEAN_ANOMALY":268.2717,"EPHEMERIS_TYPE":0,"CLASSIFICATION_TYPE":"U","NORAD_CAT_ID":45386,"ELEMENT_SET_NO":999,"REV_AT_EPOCH":30064,"BSTAR":0.00011385601,"MEAN_MOTION_DOT":1.415e-5,"MEAN_MOTION_DDOT":0},{"OBJECT_NAME":"STARLINK-1274","OBJECT_ID":"2020-019AD","EPOCH":"2025-08-26T21:06:52.158240","MEAN_MOTION":15.22087875,"ECCENTRICITY":0.00045338,"INCLINATION":53.0454,"RA_OF_ASC_NODE":295.3309,"ARG_OF_PERICENTER":326.3854,"MEAN_ANOMALY":33.6854,"EPHEMERIS_TYPE":0,"CLASSIFICATION_TYPE":"U","NORAD_CAT_ID":45387,"ELEMENT_SET_NO":999,"REV_AT_EPOCH":30072,"BSTAR":0.0010383707,"MEAN_MOTION_DOT":0.00023827,"MEAN_MOTION_DDOT":0},{"OBJECT_NAME":"STARLINK-1280","OBJECT_ID":"2020-019AE","EPOCH":"2025-08-26T22:30:49.256640","MEAN_MOTION":15.06408223,"ECCENTRICITY":0.00013465,"INCLINATION":53.0569,"RA_OF_ASC_NODE":320.9012,"ARG_OF_PERICENTER":87.4105,"MEAN_ANOMALY":272.7039,"EPHEMERIS_TYPE":0,"CLASSIFICATION_TYPE":"U","NORAD_CAT_ID":45388,"ELEMENT_SET_NO":999,"REV_AT_EPOCH":30036,"BSTAR":-7.40436e-6,"MEAN_MOTION_DOT":-3.92e-6,"MEAN_MOTION_DDOT":0},{"OBJECT_NAME":"STARLINK-1283","OBJECT_ID":"2020-019AF","EPOCH":"2025-08-27T04:23:46.586112","MEAN_MOTION":15.06407961,"ECCENTRICITY":9.869e-5,"INCLINATION":53.056,"RA_OF_ASC_NODE":299.7931,"ARG_OF_PERICENTER":88.4665,"MEAN_ANOMALY":271.6437,"EPHEMERIS_TYPE":0,"CLASSIFICATION_TYPE":"U","NORAD_CAT_ID":45389,"ELEMENT_SET_NO":999,"REV_AT_EPOCH":30069,"BSTAR":0.00010110347,"MEAN_MOTION_DOT":1.225e-5,"MEAN_MOTION_DDOT":0},{"OBJECT_NAME":"STARLINK-1284","OBJECT_ID":"2020-019AG","EPOCH":"2025-08-26T21:24:29.410848","MEAN_MOTION":15.06394025,"ECCENTRICITY":0.00010259,"INCLINATION":53.0561,"RA_OF_ASC_NODE":301.1014,"ARG_OF_PERICENTER":84.6592,"MEAN_ANOMALY":275.4514,"EPHEMERIS_TYPE":0,"CLASSIFICATION_TYPE":"U","NORAD_CAT_ID":45390,"ELEMENT_SET_NO":999,"REV_AT_EPOCH":30064,"BSTAR":7.7685242e-5,"MEAN_MOTION_DOT":8.76e-6,"MEAN_MOTION_DDOT":0},{"OBJECT_NAME":"STARLINK-1292","OBJECT_ID":"2020-019AL","EPOCH":"2025-08-27T03:03:06.840864","MEAN_MOTION":15.64260967,"ECCENTRICITY":0.00019954,"INCLINATION":53.0529,"RA_OF_ASC_NODE":283.3698,"ARG_OF_PERICENTER":26.0764,"MEAN_ANOMALY":334.0351,"EPHEMERIS_TYPE":0,"CLASSIFICATION_TYPE":"U","NORAD_CAT_ID":45394,"ELEMENT_SET_NO":999,"REV_AT_EPOCH":30065,"BSTAR":0.0012946902,"MEAN_MOTION_DOT":0.00127223,"MEAN_MOTION_DDOT":0},{"OBJECT_NAME":"STARLINK-1297","OBJECT_ID":"2020-019AM","EPOCH":"2025-08-27T04:39:42.270336","MEAN_MOTION":15.06407164,"ECCENTRICITY":0.00010423,"INCLINATION":53.0555,"RA_OF_ASC_NODE":299.7442,"ARG_OF_PERICENTER":86.7777,"MEAN_ANOMALY":273.3332,"EPHEMERIS_TYPE":0,"CLASSIFICATION_TYPE":"U","NORAD_CAT_ID":45395,"ELEMENT_SET_NO":999,"REV_AT_EPOCH":29987,"BSTAR":7.3415725e-5,"MEAN_MOTION_DOT":8.13e-6,"MEAN_MOTION_DDOT":0},{"OBJECT_NAME":"STARLINK-1307","OBJECT_ID":"2020-019AP","EPOCH":"2025-08-27T04:29:06.318816","MEAN_MOTION":15.06392019,"ECCENTRICITY":8.218e-5,"INCLINATION":53.0583,"RA_OF_ASC_NODE":299.7749,"ARG_OF_PERICENTER":97.7683,"MEAN_ANOMALY":262.3399,"EPHEMERIS_TYPE":0,"CLASSIFICATION_TYPE":"U","NORAD_CAT_ID":45397,"ELEMENT_SET_NO":999,"REV_AT_EPOCH":30051,"BSTAR":0.00010173231,"MEAN_MOTION_DOT":1.234e-5,"MEAN_MOTION_DDOT":0},{"OBJECT_NAME":"STARLINK-1312","OBJECT_ID":"2020-019AQ","EPOCH":"2025-08-27T02:42:12.812256","MEAN_MOTION":15.61515193,"ECCENTRICITY":0.00123838,"INCLINATION":53.0533,"RA_OF_ASC_NODE":282.4179,"ARG_OF_PERICENTER":337.1789,"MEAN_ANOMALY":22.8672,"EPHEMERIS_TYPE":0,"CLASSIFICATION_TYPE":"U","NORAD_CAT_ID":45398,"ELEMENT_SET_NO":999,"REV_AT_EPOCH":30068,"BSTAR":0.0015512597,"MEAN_MOTION_DOT":0.00137608,"MEAN_MOTION_DDOT":0},{"OBJECT_NAME":"STARLINK-1255","OBJECT_ID":"2020-019AR","EPOCH":"2025-08-26T10:11:43.428480","MEAN_MOTION":15.06401691,"ECCENTRICITY":0.00010121,"INCLINATION":53.0557,"RA_OF_ASC_NODE":293.1992,"ARG_OF_PERICENTER":90.7494,"MEAN_ANOMALY":269.3611,"EPHEMERIS_TYPE":0,"CLASSIFICATION_TYPE":"U","NORAD_CAT_ID":45399,"ELEMENT_SET_NO":999,"REV_AT_EPOCH":30052,"BSTAR":0.00014865412,"MEAN_MOTION_DOT":1.934e-5,"MEAN_MOTION_DDOT":0},{"OBJECT_NAME":"STARLINK-1259","OBJECT_ID":"2020-019AV","EPOCH":"2025-08-26T18:51:45.738720","MEAN_MOTION":15.72281136,"ECCENTRICITY":0.00124195,"INCLINATION":53.0516,"RA_OF_ASC_NODE":268.2171,"ARG_OF_PERICENTER":345.8272,"MEAN_ANOMALY":14.2396,"EPHEMERIS_TYPE":0,"CLASSIFICATION_TYPE":"U","NORAD_CAT_ID":45403,"ELEMENT_SET_NO":999,"REV_AT_EPOCH":30090,"BSTAR":0.0011766096,"MEAN_MOTION_DOT":0.00161955,"MEAN_MOTION_DDOT":0},{"OBJECT_NAME":"STARLINK-1260","OBJECT_ID":"2020-019AW","EPOCH":"2025-08-26T20:32:43.636704","MEAN_MOTION":15.0640208,"ECCENTRICITY":0.00011833,"INCLINATION":53.0546,"RA_OF_ASC_NODE":291.2663,"ARG_OF_PERICENTER":84.0921,"MEAN_ANOMALY":276.0203,"EPHEMERIS_TYPE":0,"CLASSIFICATION_TYPE":"U","NORAD_CAT_ID":45404,"ELEMENT_SET_NO":999,"REV_AT_EPOCH":30049,"BSTAR":6.5091932e-5,"MEAN_MOTION_DOT":6.88e-6,"MEAN_MOTION_DDOT":0},{"OBJECT_NAME":"STARLINK-1263","OBJECT_ID":"2020-019AX","EPOCH":"2025-08-27T04:09:11.342880","MEAN_MOTION":15.06400513,"ECCENTRICITY":8.241e-5,"INCLINATION":53.0533,"RA_OF_ASC_NODE":289.8388,"ARG_OF_PERICENTER":81.3357,"MEAN_ANOMALY":278.7726,"EPHEMERIS_TYPE":0,"CLASSIFICATION_TYPE":"U","NORAD_CAT_ID":45405,"ELEMENT_SET_NO":999,"REV_AT_EPOCH":30054,"BSTAR":6.8597517e-5,"MEAN_MOTION_DOT":7.41e-6,"MEAN_MOTION_DDOT":0},{"OBJECT_NAME":"STARLINK-1265","OBJECT_ID":"2020-019AY","EPOCH":"2025-08-26T20:22:06.494592","MEAN_MOTION":15.0640167,"ECCENTRICITY":0.00011089,"INCLINATION":53.0558,"RA_OF_ASC_NODE":291.2965,"ARG_OF_PERICENTER":85.6842,"MEAN_ANOMALY":274.4274,"EPHEMERIS_TYPE":0,"CLASSIFICATION_TYPE":"U","NORAD_CAT_ID":45406,"ELEMENT_SET_NO":999,"REV_AT_EPOCH":30049,"BSTAR":0.00010390972,"MEAN_MOTION_DOT":1.267e-5,"MEAN_MOTION_DDOT":0},{"OBJECT_NAME":"STARLINK-1278","OBJECT_ID":"2020-019BA","EPOCH":"2025-08-26T22:36:07.688160","MEAN_MOTION":15.06400325,"ECCENTRICITY":0.00013109,"INCLINATION":53.0567,"RA_OF_ASC_NODE":320.8801,"ARG_OF_PERICENTER":91.4446,"MEAN_ANOMALY":268.6693,"EPHEMERIS_TYPE":0,"CLASSIFICATION_TYPE":"U","NORAD_CAT_ID":45408,"ELEMENT_SET_NO":999,"REV_AT_EPOCH":30009,"BSTAR":0.00014104786,"MEAN_MOTION_DOT":1.82e-5,"MEAN_MOTION_DDOT":0},{"OBJECT_NAME":"STARLINK-1296","OBJECT_ID":"2020-019BE","EPOCH":"2025-08-26T20:27:25.113600","MEAN_MOTION":15.06401939,"ECCENTRICITY":0.00012675,"INCLINATION":53.0553,"RA_OF_ASC_NODE":291.2799,"ARG_OF_PERICENTER":82.9937,"MEAN_ANOMALY":277.1196,"EPHEMERIS_TYPE":0,"CLASSIFICATION_TYPE":"U","NORAD_CAT_ID":45412,"ELEMENT_SET_NO":999,"REV_AT_EPOCH":30049,"BSTAR":0.00012736791,"MEAN_MOTION_DOT":1.616e-5,"MEAN_MOTION_DDOT":0}]
